{
    "links": {
        "self": "http://www.neowsapp.com/rest/v1/neo/3717108?api_key=iIulBulltgU6a56xZRHN4H3l9WmuAYTsLGpBGhQ2"
    },
    "id": "3717108",
    "neo_reference_id": "3717108",
    "name": "(2015 HW11)",
    "designation": "2015 HW11",
    "nasa_jpl_url": "http://ssd.jpl.nasa.gov/sbdb.cgi?sstr=3717108",
    "absolute_magnitude_h": 23.3,
    "estimated_diameter": {
        "kilometers": {
            "estimated_diameter_min": 0.058150704,
            "estimated_diameter_max": 0.130028927
        },
        "meters": {
            "estimated_diameter_min": 58.1507039646,
            "estimated_diameter_max": 130.0289270043
        },
        "miles": {
            "estimated_diameter_min": 0.0361331611,
            "estimated_diameter_max": 0.0807962044
        },
        "feet": {
            "estimated_diameter_min": 190.7831555951,
            "estimated_diameter_max": 426.6041048727
        }
    },
    "is_potentially_hazardous_asteroid": false,
    "close_approach_data": [
        {
            "close_approach_date": "2015-04-22",
            "close_approach_date_full": "2015-Apr-22 03:32",
            "epoch_date_close_approach": 1429673520000,
            "relative_velocity": {
                "kilometers_per_second": "9.267831922",
                "kilometers_per_hour": "33364.1949192149",
                "miles_per_hour": "20731.2132263311"
            },
            "miss_distance": {
                "astronomical": "0.0520317329",
                "lunar": "20.2403440981",
                "kilometers": "7783836.414248923",
                "miles": "4836651.6692962174"
            },
            "orbiting_body": "Earth"
        },
        {
            "close_approach_date": "2020-05-03",
            "close_approach_date_full": "2020-May-03 06:39",
            "epoch_date_close_approach": 1588487940000,
            "relative_velocity": {
                "kilometers_per_second": "12.7261348393",
                "kilometers_per_hour": "45814.0854213824",
                "miles_per_hour": "28467.0910219696"
            },
            "miss_distance": {
                "astronomical": "0.1566002105",
                "lunar": "60.9174818845",
                "kilometers": "23427057.932351635",
                "miles": "14556898.786797163"
            },
            "orbiting_body": "Earth"
        }
    ],
    "orbital_data": {
        "orbit_id": "19",
        "orbit_determination_date": "2017-04-06 08:34:06",
        "first_observation_date": "2015-04-23",
        "last_observation_date": "2015-05-24",
        "data_arc_in_days": 31,
        "observations_used": 105,
        "orbit_uncertainty": "7",
        "minimum_orbit_intersection": ".0318925",
        "jupiter_tisserand_invariant": "3.862",
        "epoch_osculation": "2459000.5",
        "eccentricity": ".4764864776826823",
        "semi_major_axis": "1.847439991711277",
        "inclination": "3.462707943715639",
        "ascending_node_longitude": "233.2051421779839",
        "orbital_period": "917.1786522508022",
        "perihelion_distance": ".9671598173306467",
        "perihelion_argument": "299.4875871686504",
        "aphelion_distance": "2.727720166091907",
        "perihelion_time": "2458937.336836725863",
        "mean_anomaly": "24.79204975267057",
        "mean_motion": ".3925080453154268",
        "equinox": "J2000",
        "orbit_class": {
            "orbit_class_type": "APO",
            "orbit_class_description": "Near-Earth asteroid orbits which cross the Earth’s orbit similar to that of 1862 Apollo",
            "orbit_class_range": "a (semi-major axis) > 1.0 AU; q (perihelion) < 1.017 AU"
        }
    },
    "is_sentry_object": false
}